 
{
    "links" : {
      "self" : "https://api.nasa.gov/neo/rest/v1/neo/3519516?api_key=DEMO_KEY"
    },
    "neo_reference_id" : "3519516",
    "name" : "(2010 HW81)",
    "nasa_jpl_url" : "http://ssd.jpl.nasa.gov/sbdb.cgi?sstr=3519516",
    "absolute_magnitude_h" : 21.4,
    "estimated_diameter" : {
      "kilometers" : {
        "estimated_diameter_min" : 0.1394938229,
        "estimated_diameter_max" : 0.3119176705
      },
      "meters" : {
        "estimated_diameter_min" : 139.4938229344,
        "estimated_diameter_max" : 311.9176705226
      },
      "miles" : {
        "estimated_diameter_min" : 0.0866774163,
        "estimated_diameter_max" : 0.1938165949
      },
      "feet" : {
        "estimated_diameter_min" : 457.6569140361,
        "estimated_diameter_max" : 1023.3519701574
      }
    },
    "is_potentially_hazardous_asteroid" : false,
    "close_approach_data" : [ ],
    "orbital_data" : {
      "orbit_id" : "6",
      "orbit_determination_date" : "2017-04-06 08:57:41",
      "orbit_uncertainty" : "9",
      "minimum_orbit_intersection" : ".118351",
      "jupiter_tisserand_invariant" : "4.893",
      "epoch_osculation" : "2455318.5",
      "eccentricity" : ".7355480375581209",
      "semi_major_axis" : "1.223527713544639",
      "inclination" : "12.93970067269614",
      "ascending_node_longitude" : "230.3046789747274",
      "orbital_period" : "494.3324759591098",
      "perihelion_distance" : ".3235643049489051",
      "perihelion_argument" : "93.84796257780383",
      "aphelion_distance" : "2.123491122140373",
      "perihelion_time" : "2455373.143953374207",
      "mean_anomaly" : "320.2052784888409",
      "mean_motion" : ".7282548032101749",
      "equinox" : "J2000"
    }
  }
